YAOGAN 26               
1 40362U 14088A   17345.81382834  .00001243  00000-0  50124-4 0  9999
2 40362  97.3416  61.8685 0007073  29.4421 107.7720 15.26651592164850
